{"type": "FeatureCollection", "features": [ {"type": "Feature", "properties": {"norad_id": 33153, "name": "INTELSAT 25 (IS-25)", "group": "intelsat", "lat": -1.7256188980666565, "lon": 31.309586540738923, "alt_km": 35799.497409873315, "timestamp": "2025-12-13T22:39:29.376111+00:00", "meta": {"OBJECT_NAME": "INTELSAT 25 (IS-25)", "OBJECT_ID": "2008-034A", "EPOCH": "2025-12-13T04:44:21.834816", "MEAN_MOTION": 1.00271778, "ECCENTRICITY": 0.00049754, "INCLINATION": 2.2291, "RA_OF_ASC_NODE": 82.6458, "ARG_OF_PERICENTER": 180.1039, "MEAN_ANOMALY": 218.9829, "EPHEMERIS_TYPE": 0, "CLASSIFICATION_TYPE": "U", "NORAD_CAT_ID": 33153, "ELEMENT_SET_NO": 999, "REV_AT_EPOCH": 6383, "BSTAR": 0, "MEAN_MOTION_DOT": -2.11e-06, "MEAN_MOTION_DDOT": 0}, "tle": {"line1": "1 33153U 08034A   25347.19747494 -.00000211  00000+0  00000+0 0  9999", "line2": "2 33153   2.2291  82.6458 0004975 180.1039 218.9829  1.00271778 63835"}}, "geometry": {"type": "Point", "coordinates": [31.309586540738923, -1.7256188980666565]}}, {"type": "Feature", "properties": {"norad_id": 33376, "name": "GALAXY 19 (G-19)", "group": "intelsat", "lat": -0.015158312660239323, "lon": -34.24689238634865, "alt_km": 35781.24659991524, "timestamp": "2025-12-13T22:39:29.376123+00:00", "meta": {"OBJECT_NAME": "GALAXY 19 (G-19)", "OBJECT_ID": "2008-045A", "EPOCH": "2025-12-13T07:50:11.684832", "MEAN_MOTION": 1.00269797, "ECCENTRICITY": 0.00025734, "INCLINATION": 0.0188, "RA_OF_ASC_NODE": 359.1816, "ARG_OF_PERICENTER": 266.4314, "MEAN_ANOMALY": 197.195, "EPHEMERIS_TYPE": 0, "CLASSIFICATION_TYPE": "U", "NORAD_CAT_ID": 33376, "ELEMENT_SET_NO": 999, "REV_AT_EPOCH": 6304, "BSTAR": 0, "MEAN_MOTION_DOT": 0, "MEAN_MOTION_DDOT": 0}, "tle": {"line1": "1 33376U 08045A   25347.32652413  .00000000  00000+0  00000+0 0  9994", "line2": "2 33376   0.0188 359.1816 0002573 266.4314 197.1950  1.00269797 63043"}}, "geometry": {"type": "Point", "coordinates": [-34.24689238634865, -0.015158312660239323]}}, {"type": "Feature", "properties": {"norad_id": 35493, "name": "FM-5", "group": "intelsat", "lat": 0.01528552577814308, "lon": -23.40873674716377, "alt_km": 35789.115824162975, "timestamp": "2025-12-13T22:39:29.376136+00:00", "meta": {"OBJECT_NAME": "FM-5", "OBJECT_ID": "2009-034A", "EPOCH": "2025-12-13T04:28:45.829056", "MEAN_MOTION": 1.00271954, "ECCENTRICITY": 7.249e-05, "INCLINATION": 0.0178, "RA_OF_ASC_NODE": 291.2415, "ARG_OF_PERICENTER": 229.2636, "MEAN_ANOMALY": 262.6658, "EPHEMERIS_TYPE": 0, "CLASSIFICATION_TYPE": "U", "NORAD_CAT_ID": 35493, "ELEMENT_SET_NO": 999, "REV_AT_EPOCH": 4477, "BSTAR": 0, "MEAN_MOTION_DOT": -1.87e-06, "MEAN_MOTION_DDOT": 0}, "tle": {"line1": "1 35493U 09034A   25347.18664154 -.00000187  00000+0  00000+0 0  9991", "line2": "2 35493   0.0178 291.2415 0000724 229.2636 262.6658  1.00271954 44775"}}, "geometry": {"type": "Point", "coordinates": [-23.40873674716377, 0.01528552577814308]}}, {"type": "Feature", "properties": {"norad_id": 36097, "name": "INTELSAT 14 (IS-14)", "group": "intelsat", "lat": 0.003971965584885173, "lon": 17.76686073995635, "alt_km": 35789.720899829306, "timestamp": "2025-12-13T22:39:29.376147+00:00", "meta": {"OBJECT_NAME": "INTELSAT 14 (IS-14)", "OBJECT_ID": "2009-064A", "EPOCH": "2025-12-13T04:39:38.675232", "MEAN_MOTION": 1.00272208, "ECCENTRICITY": 0.00024696, "INCLINATION": 0.0167, "RA_OF_ASC_NODE": 36.0449, "ARG_OF_PERICENTER": 231.1806, "MEAN_ANOMALY": 199.822, "EPHEMERIS_TYPE": 0, "CLASSIFICATION_TYPE": "U", "NORAD_CAT_ID": 36097, "ELEMENT_SET_NO": 999, "REV_AT_EPOCH": 5874, "BSTAR": 0, "MEAN_MOTION_DOT": -2.6e-06, "MEAN_MOTION_DDOT": 0}, "tle": {"line1": "1 36097U 09064A   25347.19419763 -.00000260  00000+0  00000+0 0  9992", "line2": "2 36097   0.0167  36.0449 0002469 231.1806 199.8220  1.00272208 58746"}}, "geometry": {"type": "Point", "coordinates": [17.76686073995635, 0.003971965584885173]}}, {"type": "Feature", "properties": {"norad_id": 36106, "name": "INTELSAT 15 (IS-15)", "group": "intelsat", "lat": -0.010087395676865035, "lon": 147.86500093643332, "alt_km": 35791.17919429289, "timestamp": "2025-12-13T22:39:29.376159+00:00", "meta": {"OBJECT_NAME": "INTELSAT 15 (IS-15)", "OBJECT_ID": "2009-067A", "EPOCH": "2025-12-13T01:40:38.603136", "MEAN_MOTION": 1.00272274, "ECCENTRICITY": 0.0002307, "INCLINATION": 0.0184, "RA_OF_ASC_NODE": 296.0839, "ARG_OF_PERICENTER": 333.9454, "MEAN_ANOMALY": 282.2921, "EPHEMERIS_TYPE": 0, "CLASSIFICATION_TYPE": "U", "NORAD_CAT_ID": 36106, "ELEMENT_SET_NO": 999, "REV_AT_EPOCH": 3936, "BSTAR": 0, "MEAN_MOTION_DOT": -1.72e-06, "MEAN_MOTION_DDOT": 0}, "tle": {"line1": "1 36106U 09067A   25347.06989124 -.00000172  00000+0  00000+0 0  9997", "line2": "2 36106   0.0184 296.0839 0002307 333.9454 282.2921  1.00272274 39363"}}, "geometry": {"type": "Point", "coordinates": [147.86500093643332, -0.010087395676865035]}}, {"type": "Feature", "properties": {"norad_id": 36131, "name": "DIRECTV 12", "group": "intelsat", "lat": -0.020761336860422173, "lon": -39.98379230549606, "alt_km": 35783.961877361304, "timestamp": "2025-12-13T22:39:29.376171+00:00", "meta": {"OBJECT_NAME": "DIRECTV 12", "OBJECT_ID": "2009-075A", "EPOCH": "2025-12-12T21:33:07.379712", "MEAN_MOTION": 1.00272368, "ECCENTRICITY": 5.628e-05, "INCLINATION": 0.0421, "RA_OF_ASC_NODE": 134.0274, "ARG_OF_PERICENTER": 219.2719, "MEAN_ANOMALY": 309.1038, "EPHEMERIS_TYPE": 0, "CLASSIFICATION_TYPE": "U", "NORAD_CAT_ID": 36131, "ELEMENT_SET_NO": 999, "REV_AT_EPOCH": 4468, "BSTAR": 0, "MEAN_MOTION_DOT": -9.1e-07, "MEAN_MOTION_DDOT": 0}, "tle": {"line1": "1 36131U 09075A   25346.89800208 -.00000091  00000+0  00000+0 0  9999", "line2": "2 36131   0.0421 134.0274 0000562 219.2719 309.1038  1.00272368 44683"}}, "geometry": {"type": "Point", "coordinates": [-39.98379230549606, -0.020761336860422173]}}, {"type": "Feature", "properties": {"norad_id": 36397, "name": "INTELSAT 16 (IS-16)", "group": "intelsat", "lat": 0.006078959903624752, "lon": -13.437635426525585, "alt_km": 35784.86385615449, "timestamp": "2025-12-13T22:39:29.376183+00:00", "meta": {"OBJECT_NAME": "INTELSAT 16 (IS-16)", "OBJECT_ID": "2010-006A", "EPOCH": "2025-12-13T04:31:38.053632", "MEAN_MOTION": 1.00272066, "ECCENTRICITY": 0.00020463, "INCLINATION": 0.0072, "RA_OF_ASC_NODE": 334.0482, "ARG_OF_PERICENTER": 290.5684, "MEAN_ANOMALY": 169.222, "EPHEMERIS_TYPE": 0, "CLASSIFICATION_TYPE": "U", "NORAD_CAT_ID": 36397, "ELEMENT_SET_NO": 999, "REV_AT_EPOCH": 5778, "BSTAR": 0, "MEAN_MOTION_DOT": -2.31e-06, "MEAN_MOTION_DDOT": 0}, "tle": {"line1": "1 36397U 10006A   25347.18863488 -.00000231  00000+0  00000+0 0  9997", "line2": "2 36397   0.0072 334.0482 0002046 290.5684 169.2220  1.00272066 57782"}}, "geometry": {"type": "Point", "coordinates": [-13.437635426525585, 0.006078959903624752]}}, {"type": "Feature", "properties": {"norad_id": 37185, "name": "XM-5", "group": "intelsat", "lat": 0.02619226855828013, "lon": -52.44947490966514, "alt_km": 35792.33931805031, "timestamp": "2025-12-13T22:39:29.376195+00:00", "meta": {"OBJECT_NAME": "XM-5", "OBJECT_ID": "2010-053A", "EPOCH": "2025-12-13T05:16:17.710752", "MEAN_MOTION": 1.00272711, "ECCENTRICITY": 0.00016612, "INCLINATION": 0.0611, "RA_OF_ASC_NODE": 273.0453, "ARG_OF_PERICENTER": 234.9658, "MEAN_ANOMALY": 258.0262, "EPHEMERIS_TYPE": 0, "CLASSIFICATION_TYPE": "U", "NORAD_CAT_ID": 37185, "ELEMENT_SET_NO": 999, "REV_AT_EPOCH": 5561, "BSTAR": 0, "MEAN_MOTION_DOT": -1e-07, "MEAN_MOTION_DDOT": 0}, "tle": {"line1": "1 37185U 10053A   25347.21964943 -.00000010  00000+0  00000+0 0  9992", "line2": "2 37185   0.0611 273.0453 0001661 234.9658 258.0262  1.00272711 55612"}}, "geometry": {"type": "Point", "coordinates": [-52.44947490966514, 0.02619226855828013]}}, {"type": "Feature", "properties": {"norad_id": 37238, "name": "INTELSAT 17 (IS-17)", "group": "intelsat", "lat": 0.005495565718663121, "lon": 128.72100445654482, "alt_km": 35793.71710883612, "timestamp": "2025-12-13T22:39:29.376207+00:00", "meta": {"OBJECT_NAME": "INTELSAT 17 (IS-17)", "OBJECT_ID": "2010-065B", "EPOCH": "2025-12-13T05:12:11.670336", "MEAN_MOTION": 1.00271489, "ECCENTRICITY": 0.00025381, "INCLINATION": 0.006, "RA_OF_ASC_NODE": 312.8754, "ARG_OF_PERICENTER": 310.8055, "MEAN_ANOMALY": 322.5292, "EPHEMERIS_TYPE": 0, "CLASSIFICATION_TYPE": "U", "NORAD_CAT_ID": 37238, "ELEMENT_SET_NO": 999, "REV_AT_EPOCH": 5138, "BSTAR": 0, "MEAN_MOTION_DOT": 1.2e-07, "MEAN_MOTION_DDOT": 0}, "tle": {"line1": "1 37238U 10065B   25347.21680174  .00000012  00000+0  00000+0 0  9996", "line2": "2 37238   0.0060 312.8754 0002538 310.8055 322.5292  1.00271489 51385"}}, "geometry": {"type": "Point", "coordinates": [128.72100445654482, 0.005495565718663121]}}, {"type": "Feature", "properties": {"norad_id": 37392, "name": "INTELSAT 28 (IS-28)", "group": "intelsat", "lat": -1.0565669277201895, "lon": 31.097501546876362, "alt_km": 35794.9515325586, "timestamp": "2025-12-13T22:39:29.376218+00:00", "meta": {"OBJECT_NAME": "INTELSAT 28 (IS-28)", "OBJECT_ID": "2011-016A", "EPOCH": "2025-12-13T04:44:14.347392", "MEAN_MOTION": 1.00273103, "ECCENTRICITY": 0.00037618, "INCLINATION": 1.326, "RA_OF_ASC_NODE": 85.0489, "ARG_OF_PERICENTER": 181.4899, "MEAN_ANOMALY": 214.9708, "EPHEMERIS_TYPE": 0, "CLASSIFICATION_TYPE": "U", "NORAD_CAT_ID": 37392, "ELEMENT_SET_NO": 999, "REV_AT_EPOCH": 5142, "BSTAR": 0, "MEAN_MOTION_DOT": -2.11e-06, "MEAN_MOTION_DDOT": 0}, "tle": {"line1": "1 37392U 11016A   25347.19738828 -.00000211  00000+0  00000+0 0  9993", "line2": "2 37392   1.3260  85.0489 0003761 181.4899 214.9708  1.00273103 51429"}}, "geometry": {"type": "Point", "coordinates": [31.097501546876362, -1.0565669277201895]}}]}